IRIDIUM 113             
1 42803U 17039A   26195.79892520  .00000019  00000+0 -37286-6 0  9994
2 42803  86.3991 310.6383 0002134  91.6695 268.4745 14.34217283475147
NORSAT 2                
1 42828U 17042D   26195.44007246  .00005744  00000+0  25132-3 0  9993
2 42828  97.4048   8.4596 0008264 321.0174  39.0466 15.22418888491883
TECHNOSAT               
1 42829U 17042E   26195.37528415  .00001874  00000+0  13547-3 0  9999
2 42829  97.4314 352.0048 0017510   6.1550 353.9889 15.05108329490796
FLYING LAPTOP           
1 42831U 17042G   26195.84681763  .00002352  00000+0  18652-3 0  9994
2 42831  97.4797 350.3387 0019713  33.6563 326.5909 15.01312785490605
WNISAT 1R               
1 42835U 17042L   26195.74248466  .00000471  00000+0  40499-4 0  9991
2 42835  97.4821 350.8805 0010926  66.2150 294.0220 15.01858009490641
LEMUR-2-GREENBERG       
1 42837U 17042N   26195.45912462  .00009907  00000+0  32148-3 0  9999
2 42837  97.3823  15.9753 0007194 263.1794  96.8630 15.32137916492567
LEMUR-2-FURIAUS         
1 42840U 17042R   26195.79833267  .00009709  00000+0  32525-3 0  9994
2 42840  97.3768  14.2060 0006009 332.4453  27.6469 15.31122578492433
CORVUS BC2              
1 42846U 17042X   26195.42959660  .00001298  00000+0  91874-4 0  9994
2 42846  97.4090 355.7268 0013523  25.6312 334.5584 15.06454543491164
CORVUS BC1              
1 42847U 17042Y   26195.42120606  .00001251  00000+0  88366-4 0  9996
2 42847  97.4119 356.5502 0011734   2.9790 357.1506 15.06617331491191
VRSS-2                  
1 42954U 17060A   26195.88400771  .00000524  00000+0  73541-4 0  9990
2 42954  97.6503 232.3619 0017541  14.7381 345.4340 14.81238262472557
MOHAMMED VI-A           
1 43005U 17070A   26195.84961178  .00000457  00000+0  71883-4 0  9990
2 43005  97.9556 267.7983 0001212  94.0573 266.0775 14.77102953468067
FENGYUN 3D              
1 43010U 17072A   26195.91437213  .00000075  00000+0  57073-4 0  9995
2 43010  99.0137 170.8400 0001526  14.4962 345.6257 14.19744668448928
NOAA 20 (JPSS-1)        
1 43013U 17073A   26195.84340712  .00000006  00000+0  23681-4 0  9990
2 43013  98.7772 135.0610 0001373 125.0813 235.0491 14.19516397448391
MAKERSAT 0              
1 43016U 17073D   26195.60318523  .00011617  00000+0  30730-3 0  9994
2 43016  97.4584  78.3470 0105407 174.3522 185.8937 15.32992920470669
RADFXSAT (FOX-1B)       
1 43017U 17073E   26195.58998105  .00004198  00000+0  18450-3 0  9993
2 43017  97.4666  62.2466 0148235 233.5986 125.1498 15.13055354469539
JILIN-1 04              
1 43022U 17074A   26195.84612720  .00008494  00000+0  19389-3 0  9990
2 43022  97.4882 306.2117 0005253 101.1400 259.0438 15.43125411478538
JILIN-1 05              
1 43023U 17074B   26195.84286889  .00004888  00000+0  14968-3 0  9995
2 43023  97.4885 302.3807 0006437 125.6174 234.5669 15.34282192478241
JILIN-1 06              
1 43024U 17074C   26195.81870625  .00003455  00000+0  10747-3 0  9990
2 43024  97.4811 299.3287 0008068 135.2297 224.9597 15.33993289478072
IRIDIUM 116             
1 43072U 17083C   26195.84332266  .00000128  00000+0  38542-4 0  9998
2 43072  86.3985 310.4404 0002443  98.6620 261.4852 14.34217711448136
IRIDIUM 130             
1 43073U 17083D   26195.81161358  .00000135  00000+0  40981-4 0  9996
2 43073  86.3993 310.7316 0002250 100.6404 259.5045 14.34217860448071
LKW-2                   
1 43080U 17084A   26195.88763796  .00003059  00000+0  11914-3 0  9997
2 43080  97.1180 234.3922 0003628 119.2206 240.9396 15.26686628475917
SUPERVIEW-1 03          
1 43099U 18002A   26195.85075514  .00011586  00000+0  27943-3 0  9992
2 43099  97.3136 280.6621 0046964  82.3159 278.3417 15.40205668472628
CARTOSAT-2F             
1 43111U 18004A   26195.80567315  .00000659  00000+0  34498-4 0  9992
2 43111  97.4780 255.1683 0002736 135.5647 224.5807 15.19266037471523
LKW-3                   
1 43146U 18006A   26195.88018806  .00008737  00000+0  25368-3 0  9996
2 43146  97.6626 357.5498 0002916 180.3945 179.7296 15.35749037472968
ASNARO-2                
1 43152U 18007A   26195.85733304  .00004853  00000+0  21292-3 0  9995
2 43152  97.3970 202.3523 0001875  93.3672 266.7779 15.22422085471625
JILIN-1 07              
1 43159U 18008E   26195.86435772  .00005079  00000+0  15104-3 0  9998
2 43159  97.1763 215.0618 0006776 329.5845  30.5005 15.35160965469241
JILIN-1 08              
1 43160U 18008F   26195.81891612  .00003481  00000+0  10809-3 0  9996
2 43160  97.1799 214.3027 0005353 354.2251   5.8930 15.34007638469185
S-NET D                 
1 43186U 18014G   26195.70752161  .00002523  00000+0  13144-3 0  9995
2 43186  97.5336 100.3276 0006264 287.1743  72.8804 15.16915277462933
